{
  "type": "FeatureCollection",
  "features": [
    {
      "type": "Feature",
      "properties": {
        "norad_id": 66572,
        "name": "STARLINK-35870",
        "group": "last-30-days",
        "lat": -35.62683446240974,
        "lon": 24.099756424613023,
        "alt_km": 390.67351674777365,
        "timestamp": "2025-12-07T03:52:31.204304+00:00",
        "meta_object_name": "STARLINK-35870",
        "meta_object_id": "2025-268R",
        "meta_epoch": "2025-12-06T14:00:01.999872",
        "meta_mean_motion": 15.6210136,
        "meta_eccentricity": 0.00013363,
        "meta_inclination": 42.9996,
        "meta_ra_of_asc_node": 157.2643,
        "meta_arg_of_pericenter": 258.3682,
        "meta_mean_anomaly": 327.9316,
        "meta_ephemeris_type": 0,
        "meta_classification_type": "U",
        "meta_norad_cat_id": 66572,
        "meta_element_set_no": 999,
        "meta_rev_at_epoch": 368,
        "meta_bstar": -0.025177907,
        "meta_mean_motion_dot": -0.01993795,
        "meta_mean_motion_ddot": 0,
        "tle_line1": "1 66572U 25268R   25340.58335648 -.01993795  00000+0 -25178-1 0  9993",
        "tle_line2": "2 66572  42.9996 157.2643 0001336 258.3682 327.9316 15.62101360  3685"
      },
      "geometry": {
        "type": "Point",
        "coordinates": [
          24.099756424613023,
          -35.62683446240974
        ]
      }
    },
    {
      "type": "Feature",
      "properties": {
        "norad_id": 66573,
        "name": "STARLINK-35650",
        "group": "last-30-days",
        "lat": -36.44133063451065,
        "lon": 26.233615985592948,
        "alt_km": 390.6303008043187,
        "timestamp": "2025-12-07T03:52:31.204315+00:00",
        "meta_object_name": "STARLINK-35650",
        "meta_object_id": "2025-268S",
        "meta_epoch": "2025-12-06T14:00:01.999872",
        "meta_mean_motion": 15.62103954,
        "meta_eccentricity": 0.00014799,
        "meta_inclination": 42.9996,
        "meta_ra_of_asc_node": 157.2583,
        "meta_arg_of_pericenter": 260.6113,
        "meta_mean_anomaly": 327.6015,
        "meta_ephemeris_type": 0,
        "meta_classification_type": "U",
        "meta_norad_cat_id": 66573,
        "meta_element_set_no": 999,
        "meta_rev_at_epoch": 368,
        "meta_bstar": -0.025198173,
        "meta_mean_motion_dot": -0.01995489,
        "meta_mean_motion_ddot": 0,
        "tle_line1": "1 66573U 25268S   25340.58335648 -.01995489  00000+0 -25198-1 0  9998",
        "tle_line2": "2 66573  42.9996 157.2583 0001479 260.6113 327.6015 15.62103954  3686"
      },
      "geometry": {
        "type": "Point",
        "coordinates": [
          26.233615985592948,
          -36.44133063451065
        ]
      }
    },
    {
      "type": "Feature",
      "properties": {
        "norad_id": 66574,
        "name": "STARLINK-35812",
        "group": "last-30-days",
        "lat": -37.21757130268689,
        "lon": 28.41454104987678,
        "alt_km": 390.7035771622013,
        "timestamp": "2025-12-07T03:52:31.204325+00:00",
        "meta_object_name": "STARLINK-35812",
        "meta_object_id": "2025-268T",
        "meta_epoch": "2025-12-06T14:00:01.999872",
        "meta_mean_motion": 15.62106506,
        "meta_eccentricity": 0.00014084,
        "meta_inclination": 42.9997,
        "meta_ra_of_asc_node": 157.2532,
        "meta_arg_of_pericenter": 259.4073,
        "meta_mean_anomaly": 330.7243,
        "meta_ephemeris_type": 0,
        "meta_classification_type": "U",
        "meta_norad_cat_id": 66574,
        "meta_element_set_no": 999,
        "meta_rev_at_epoch": 368,
        "meta_bstar": -0.025283087,
        "meta_mean_motion_dot": -0.02001505,
        "meta_mean_motion_ddot": 0,
        "tle_line1": "1 66574U 25268T   25340.58335648 -.02001505  00000+0 -25283-1 0  9992",
        "tle_line2": "2 66574  42.9997 157.2532 0001408 259.4073 330.7243 15.62106506  3689"
      },
      "geometry": {
        "type": "Point",
        "coordinates": [
          28.41454104987678,
          -37.21757130268689
        ]
      }
    },
    {
      "type": "Feature",
      "properties": {
        "norad_id": 66575,
        "name": "STARLINK-35810",
        "group": "last-30-days",
        "lat": -37.95331326360724,
        "lon": 30.641722416636643,
        "alt_km": 390.63689281999814,
        "timestamp": "2025-12-07T03:52:31.204335+00:00",
        "meta_object_name": "STARLINK-35810",
        "meta_object_id": "2025-268U",
        "meta_epoch": "2025-12-06T14:00:01.999872",
        "meta_mean_motion": 15.62107609,
        "meta_eccentricity": 0.00015145,
        "meta_inclination": 42.9998,
        "meta_ra_of_asc_node": 157.2486,
        "meta_arg_of_pericenter": 258.1691,
        "meta_mean_anomaly": 333.8752,
        "meta_ephemeris_type": 0,
        "meta_classification_type": "U",
        "meta_norad_cat_id": 66575,
        "meta_element_set_no": 999,
        "meta_rev_at_epoch": 368,
        "meta_bstar": -0.025258808,
        "meta_mean_motion_dot": -0.01999977,
        "meta_mean_motion_ddot": 0,
        "tle_line1": "1 66575U 25268U   25340.58335648 -.01999977  00000+0 -25259-1 0  9994",
        "tle_line2": "2 66575  42.9998 157.2486 0001514 258.1691 333.8752 15.62107609  3683"
      },
      "geometry": {
        "type": "Point",
        "coordinates": [
          30.641722416636643,
          -37.95331326360724
        ]
      }
    },
    {
      "type": "Feature",
      "properties": {
        "norad_id": 66576,
        "name": "STARLINK-35814",
        "group": "last-30-days",
        "lat": -38.647061142653286,
        "lon": 32.916376712826526,
        "alt_km": 390.7025641907094,
        "timestamp": "2025-12-07T03:52:31.204345+00:00",
        "meta_object_name": "STARLINK-35814",
        "meta_object_id": "2025-268V",
        "meta_epoch": "2025-12-06T14:00:01.999872",
        "meta_mean_motion": 15.62103117,
        "meta_eccentricity": 0.00014157,
        "meta_inclination": 42.9998,
        "meta_ra_of_asc_node": 157.2439,
        "meta_arg_of_pericenter": 255.1686,
        "meta_mean_anomaly": 338.7965,
        "meta_ephemeris_type": 0,
        "meta_classification_type": "U",
        "meta_norad_cat_id": 66576,
        "meta_element_set_no": 999,
        "meta_rev_at_epoch": 368,
        "meta_bstar": -0.025190537,
        "meta_mean_motion_dot": -0.01994852,
        "meta_mean_motion_ddot": 0,
        "tle_line1": "1 66576U 25268V   25340.58335648 -.01994852  00000+0 -25191-1 0  9997",
        "tle_line2": "2 66576  42.9998 157.2439 0001415 255.1686 338.7965 15.62103117  3683"
      },
      "geometry": {
        "type": "Point",
        "coordinates": [
          32.916376712826526,
          -38.647061142653286
        ]
      }
    },
    {
      "type": "Feature",
      "properties": {
        "norad_id": 66577,
        "name": "STARLINK-35815",
        "group": "last-30-days",
        "lat": -39.29381537830588,
        "lon": 35.22765756809838,
        "alt_km": 390.6846050589693,
        "timestamp": "2025-12-07T03:52:31.204357+00:00",
        "meta_object_name": "STARLINK-35815",
        "meta_object_id": "2025-268W",
        "meta_epoch": "2025-12-06T14:00:01.999872",
        "meta_mean_motion": 15.62103909,
        "meta_eccentricity": 0.000149,
        "meta_inclination": 42.9996,
        "meta_ra_of_asc_node": 157.2392,
        "meta_arg_of_pericenter": 256.4326,
        "meta_mean_anomaly": 339.4495,
        "meta_ephemeris_type": 0,
        "meta_classification_type": "U",
        "meta_norad_cat_id": 66577,
        "meta_element_set_no": 999,
        "meta_rev_at_epoch": 368,
        "meta_bstar": -0.025215512,
        "meta_mean_motion_dot": -0.01996697,
        "meta_mean_motion_ddot": 0,
        "tle_line1": "1 66577U 25268W   25340.58335648 -.01996697  00000+0 -25216-1 0  9995",
        "tle_line2": "2 66577  42.9996 157.2392 0001490 256.4326 339.4495 15.62103909  3683"
      },
      "geometry": {
        "type": "Point",
        "coordinates": [
          35.22765756809838,
          -39.29381537830588
        ]
      }
    },
    {
      "type": "Feature",
      "properties": {
        "norad_id": 66578,
        "name": "STARLINK-35743",
        "group": "last-30-days",
        "lat": -39.89497213557038,
        "lon": 37.58416548477599,
        "alt_km": 390.73115654530557,
        "timestamp": "2025-12-07T03:52:31.204369+00:00",
        "meta_object_name": "STARLINK-35743",
        "meta_object_id": "2025-268X",
        "meta_epoch": "2025-12-06T14:00:01.999872",
        "meta_mean_motion": 15.62104372,
        "meta_eccentricity": 0.00014448,
        "meta_inclination": 42.9996,
        "meta_ra_of_asc_node": 157.2343,
        "meta_arg_of_pericenter": 255.8923,
        "meta_mean_anomaly": 341.9058,
        "meta_ephemeris_type": 0,
        "meta_classification_type": "U",
        "meta_norad_cat_id": 66578,
        "meta_element_set_no": 999,
        "meta_rev_at_epoch": 368,
        "meta_bstar": -0.025205338,
        "meta_mean_motion_dot": -0.01995989,
        "meta_mean_motion_ddot": 0,
        "tle_line1": "1 66578U 25268X   25340.58335648 -.01995989  00000+0 -25205-1 0  9997",
        "tle_line2": "2 66578  42.9996 157.2343 0001444 255.8923 341.9058 15.62104372  3683"
      },
      "geometry": {
        "type": "Point",
        "coordinates": [
          37.58416548477599,
          -39.89497213557038
        ]
      }
    }
  ]
}